#dP2023  1 12  0  0  0.00000000      96 __u+U ITR14 FIT  IAC
## 2244 345600.00000000   900.00000000 59956 0.0000000000000
+  130   C01C02C03C04C05C06C07C08C09C10C11C12C13C14C16C19C20
+        C21C22C23C24C25C26C27C28C29C30C32C33C34C35C36C37C38
+        C39C40C41C42C43C44C45C46C59C60E01E02E03E04E05E07E08
+        E09E10E11E12E13E14E15E18E19E21E24E25E26E27E30E31E33
+        E34E36G01G02G03G04G05G06G07G08G09G10G11G12G13G14G15
+        G16G17G18G19G20G21G22G23G24G25G26G27G29G30G31G32J02
+        J03J04J07R01R02R03R04R05R06R07R08R09R10R11R12R13R14
+        R15R16R17R18R19R20R21R22R23R24R25  0  0  0  0  0  0
++        17 17 17 17 16  9  9 10  9  9  9  8  9  8  9  7  7
++         7  7  7  0  7  7  7  7  7  7  8  7  7  9  8  8  8
++         8  8  7  7  7  7  7  8 18 17  4  4  5  4  4  4  4
++         4  4  4  4  4  4  4  5  4  4  4  4  4  4  4  4  4
++         4  4  4  4  4  4  4  4  4  4  4  4  4  4  4  4  4
++         4  3  4  4  4  4  0  4  4  4  4  4  4  4  4  4  8
++         8  8 17  7  6  5  6  6 15  6  6  6 15  6  6  7  6
++         6  6  6  6  7  8  6  6 15  6  8  0  0  0  0  0  0
%c M  cc GPS ccc cccc cccc cccc cccc ccccc ccccc ccccc ccccc
%c cc cc ccc ccc cccc cccc cccc cccc ccccc ccccc ccccc ccccc
%f  0.0000000  0.000000000  0.00000000000  0.000000000000000
%f  0.0000000  0.000000000  0.00000000000  0.000000000000000
%i    0    0    0    0      0      0      0      0         0
%i    0    0    0    0      0      0      0      0         0
/* INFORMATION & ANALYSIS CENTER (IAC)            RAPID DATA
/* S/V CLOCKS ARE ALIGNED TO GNSS TIME                      
/* G:C1WC2W R:C1PC2P E:C1XC5X C:C2IC6I J:C1CC2S             
/* PCV:IGS20_2239 OL/AL:FES2004  NONE     YN ORB:CoN CLK:CoN
*  2023 01 12 18 30  0.00000000
PC01 -34319.688521  24445.409132   1018.598261    920.199016
PC02   4390.388316  41940.801692    561.721225   -121.780027
PC03 -14786.863583  39457.570702   1288.659768     65.393290
PC04 -39600.867601  14417.601825    468.173215   -237.094580
PC05  21787.376153  36078.199480    442.870087    254.837298
PC06 -18598.294478  31617.626341 -21011.419684   -184.602543
PC07  -4027.662465  39252.186605 -14561.283300     25.477208
PC08  -2173.817939  21323.931655  36346.973148    527.488294
PC09 -12093.824683  30303.728760 -26606.986211    234.504007
PC10    827.877244  40697.900577  -9625.613878     33.542271
PC11 -12009.949632  22068.667557  12195.812160   -181.772580
PC12 -22068.088275  16282.258344  -5100.473892    394.096872
PC13   3102.820681  24105.656467  34666.012147    181.676081
PC14   -962.778389  25657.392547  10887.456745    361.458440
PC16 -20780.926270  31332.480730 -19201.078887     83.301648
PC19  -5882.694876 -27225.274390  -1810.012846   -897.408039
PC20   6373.968843 -21241.551447 -16940.781625    769.887792
PC21 -15735.951132   1881.108583  22984.861419   -917.405420
PC22 -15296.525231 -17829.362543  15076.554829   -689.314975
PC23  23124.642536  12962.615524  -8738.215793   -871.399724
PC24 -15247.879706  11181.372952 -20580.818099 999999.999999
PC25   7420.293673  17210.518925 -20695.885016     54.428660
PC26 -26265.678255    338.562500  -9382.079145    -63.372493
PC27  22830.924132  -9689.440737  12760.262949     80.553523
PC28  15405.981465   6658.553791  22302.017180     58.130681
PC29   1445.564516 -20496.646092 -18882.927339     66.524872
PC30  17330.047723 -21571.373438  -3521.069082      1.268883
PC32  15736.727691  -1925.792502 -22950.112241   -652.343967
PC33   5948.156987  27189.772801   1949.796479   -881.649365
PC34 -16628.478672  21934.262457   4670.253610     82.168621
PC35 -14743.889606  -7398.203862 -22520.142729    318.131353
PC36  -6235.240003 -17352.531883  20957.511288   -699.528657
PC37  26684.529710   1299.831120   8119.283505   -849.876386
PC38 -11641.624679  20129.996236  35197.554593     51.484320
PC39 -24043.395172  32042.894608 -13461.257894     -1.400365
PC40  -8705.016019  36768.805054 -18465.811253    -12.382838
PC41  15185.254856  18301.000816 -14552.290919   -486.246957
PC42  -7241.530841  20274.982987  17788.541156   -899.948039
PC43  -2210.228070  20906.936829  18357.654037      1.724527
PC44 -22530.694735  10300.372267 -12888.918127    175.137275
PC45 -23348.050067 -12728.970545   8404.706131    -46.702228
PC46  13398.967858 -12039.540704  21315.667648    -25.984995
PC59 -32265.037521  27125.690326    320.378420      0.360335
PC60   7274.329365  41512.110595   1417.669883     -0.575010
PE01 -15274.818824   7830.605010 -24115.963272   -593.860962
PE02  15036.090184  -8129.940008  24162.052371     14.298071
PE03  16362.595342 -20126.190176 -14273.344587   -639.257143
PE04  -5964.177236  28795.867171  -3397.782585    -34.718176
PE05  17373.669690    604.758256 -23958.259306   -105.841638
PE07  -8194.786351 -20720.266957  19488.870514    -14.642114
PE08   5985.193244 -28801.744408   3315.337810    -18.349489
PE09   8005.002948  20819.487632 -19456.057264   -797.677908
PE10   3502.872833  15644.202711  24883.139003   -504.598507
PE11  15170.423749  11431.898911  22694.989878    430.264322
PE12  -7639.413399  17152.813499  22892.042113   -381.710239
PE13 -14285.292476 -11779.706606 -23085.647937    429.964153
PE14   5481.766319  17643.819020  14482.170529    111.507620
PE15   7975.945250 -17095.651406 -22795.665131    694.608128
PE18  -7873.536199 -23928.087097 -20471.084621   -517.176015
PE19 -17111.321247  17804.037703  16329.598441  -3503.968731
PE21 -23440.072150  -9376.861560 -15448.360390   -505.863500
PE24  18283.544929  23029.697210  -3559.104726  -1054.284818
PE25  23492.096184   9681.227951  15197.845460   -597.035361
PE26 -28176.186562    833.952227  -9020.378465  -1853.410172
PE27 -18884.492758 -22621.030270   2691.771829   -486.076734
PE30  -2487.656629 -22161.889024  19439.537627  -1154.869802
PE31   3271.512381  22418.375143 -19053.218287   -513.141947
PE33 -25364.784940  12289.842175   9067.617231   -454.346227
PE34  25252.508846 -12405.506939  -9206.364510    -24.489077
PE36  27904.535032   -358.237923   9865.609170   -489.434718
PG01  -5802.630918 -13889.045874 -22225.782961    225.281808
PG02   9299.957872  13107.770664  21746.051554   -627.710073
PG03 -11193.973885 -22596.419949  -8640.110219   -372.543561
PG04  -2050.867768 -21999.516568  14665.292264    -50.069842
PG05  -1151.127493  18314.290091  18987.529037   -111.729463
PG06 -25882.498240   5765.437090   2267.531156    557.361919
PG07 -20075.982837  -8255.367187  16053.321012    259.883305
PG08   5590.088301 -25422.835380  -4153.339462   -103.232527
PG09 -10861.497476 -12852.583642  20461.081914   -237.619019
PG10  19773.764188   6145.483092 -16643.353657    -20.136613
PG11 -19054.223269  12058.382413  14018.807803    -77.225170
PG12   8439.123663  23359.334952  -9831.416863   -327.291428
PG13 -13212.995809  22872.210287   1298.767836    458.226532
PG14 -20223.944830  -8534.696606 -15032.892134    -50.701215
PG15  -2076.520116  25966.368421  -4804.380666      4.043145
PG16   6216.270636 -15542.580603  20211.591276   -524.036643
PG17 -15920.855287   1244.638618 -20804.943929    692.875937
PG18  22058.247566   6025.749122  13637.289000    -96.393584
PG19 -17810.917077  11841.902570 -15800.971369    263.211846
PG20 -11366.349808  10666.704339  21524.032933    457.491941
PG21   3147.311176 -15616.767974 -20506.074359    153.395502
PG22      0.000000      0.000000      0.000000 999999.999999
PG23  20427.628540  15282.125832  -7650.603371      2.288207
PG24   1894.546522  15938.690694 -21483.251880    -26.988934
PG25  16361.079759  21074.959194  -1652.482049    410.698601
PG26  15774.468051  -5452.696963  20613.761511    240.186943
PG27  12718.665330 -22110.848776   6352.363830    128.739157
PG29   7504.758632  15808.591418  19910.513206   -579.996071
PG30 -26165.705519    163.560764   5392.629249   -533.426980
PG31  25739.648644  -6446.899740   3655.921591   -206.130827
PG32  16585.386735  -4738.107512 -19982.679226   -361.791510
PJ02 -22698.864975  18432.205919 -25798.274110     -0.551559
PJ03 -28560.520430  30489.127647  10426.228249     -0.072876
PJ04 -25906.032048  28068.329677  23869.708645    118.489880
PJ07 -25402.047741  33665.068701      9.502329     -0.038140
PR01   6870.609806  22548.455026  -9740.127964     21.136763
PR02  10800.551823   6719.076737 -22080.581468    -23.317981
PR03   8755.539491 -12488.199359 -20383.076873     70.741256
PR04   1888.690111 -24304.954308  -7453.194122    172.066242
PR05  -5897.842123 -22887.484015   9567.636673    106.066508
PR06 -11240.617600  -5021.546458  22325.867230    -89.999885
PR07  -8552.462857  13323.386373  20056.310753     47.876270
PR08  -1782.694275  24382.234545   7398.020200    -68.982897
PR09 -23723.046328  -8208.680040  -4728.041155     98.193942
PR10 -17841.424675   1320.543978 -18159.225324    -89.541725
PR11  -1298.432886  11333.929890 -22807.792334      6.996442
PR12  16623.233789  14646.220050 -12643.222096     24.271417
PR13  23553.856901   9308.739848   3049.461629    -30.884760
PR14  16708.419698  -2390.148864  19125.531703     24.213920
PR15    331.085606 -11881.606433  22581.734104     91.745701
PR16 -16512.355198 -14470.538294  13011.154729      9.877173
PR17  21514.223549 -13676.070229   1341.253035    595.178528
PR18  12929.840848 -16358.194658 -14633.770674     61.456649
PR19   -780.069475 -11414.580612 -22791.746878   -218.001108
PR20 -18199.408785   1935.152439 -17775.057834    -85.729627
PR21 -21170.604984  14202.233685    396.912096   -364.917572
PR22 -12739.484917  16078.124043  15202.833084     66.327132
PR23   5784.906293   8650.209836  23287.262497    -68.880577
PR24  18653.946082  -2618.861425  17229.018653    139.172017
PR25 -22191.268134  12447.678169  -1663.945434     51.419587
EOF
